{"type": "FeatureCollection", "features": [ {"type": "Feature", "properties": {"norad_id": 31286, "name": "FENGYUN 1C DEB", "group": "fengyun-1c-debris", "lat": 0.7725356137691496, "lon": -113.66771675077764, "alt_km": 829.1573154792995, "timestamp": "2025-12-20T03:42:47.674775+00:00", "meta": {"OBJECT_NAME": "FENGYUN 1C DEB", "OBJECT_ID": "1999-025BNU", "EPOCH": "2025-12-16T10:15:45.270720", "MEAN_MOTION": 14.22801772, "ECCENTRICITY": 0.00798767, "INCLINATION": 100.8592, "RA_OF_ASC_NODE": 241.8956, "ARG_OF_PERICENTER": 269.7947, "MEAN_ANOMALY": 89.407, "EPHEMERIS_TYPE": 0, "CLASSIFICATION_TYPE": "U", "NORAD_CAT_ID": 31286, "ELEMENT_SET_NO": 999, "REV_AT_EPOCH": 64072, "BSTAR": 0.0020801755, "MEAN_MOTION_DOT": 4.763e-05, "MEAN_MOTION_DDOT": 0}, "tle": {"line1": "1 31286U 99025BNU 25350.42760730  .00004763  00000+0  20802-2 0  9992", "line2": "2 31286 100.8592 241.8956 0079876 269.7947  89.4070 14.22801772640724"}}, "geometry": {"type": "Point", "coordinates": [-113.66771675077764, 0.7725356137691496]}}, {"type": "Feature", "properties": {"norad_id": 31287, "name": "FENGYUN 1C DEB", "group": "fengyun-1c-debris", "lat": -9.933948600995066, "lon": -130.99818515670344, "alt_km": 818.782226088164, "timestamp": "2025-12-20T03:42:47.674787+00:00", "meta": {"OBJECT_NAME": "FENGYUN 1C DEB", "OBJECT_ID": "1999-025BNV", "EPOCH": "2025-12-17T09:14:55.199040", "MEAN_MOTION": 14.280549, "ECCENTRICITY": 0.0027206, "INCLINATION": 99.41, "RA_OF_ASC_NODE": 47.6846, "ARG_OF_PERICENTER": 50.1324, "MEAN_ANOMALY": 310.2241, "EPHEMERIS_TYPE": 0, "CLASSIFICATION_TYPE": "U", "NORAD_CAT_ID": 31287, "ELEMENT_SET_NO": 999, "REV_AT_EPOCH": 96752, "BSTAR": 0.0011667317, "MEAN_MOTION_DOT": 2.86e-05, "MEAN_MOTION_DDOT": 0}, "tle": {"line1": "1 31287U 99025BNV 25351.38536110  .00002860  00000+0  11667-2 0  9997", "line2": "2 31287  99.4100  47.6846 0027206  50.1324 310.2241 14.28054900967528"}}, "geometry": {"type": "Point", "coordinates": [-130.99818515670344, -9.933948600995066]}}, {"type": "Feature", "properties": {"norad_id": 31288, "name": "FENGYUN 1C DEB", "group": "fengyun-1c-debris", "lat": -17.227042461748407, "lon": 155.80077384615922, "alt_km": 576.7483740761072, "timestamp": "2025-12-20T03:42:47.674797+00:00", "meta": {"OBJECT_NAME": "FENGYUN 1C DEB", "OBJECT_ID": "1999-025BNW", "EPOCH": "2025-12-19T10:25:18.017184", "MEAN_MOTION": 14.96394109, "ECCENTRICITY": 0.0022905, "INCLINATION": 98.7467, "RA_OF_ASC_NODE": 152.26, "ARG_OF_PERICENTER": 277.3502, "MEAN_ANOMALY": 146.1105, "EPHEMERIS_TYPE": 0, "CLASSIFICATION_TYPE": "U", "NORAD_CAT_ID": 31288, "ELEMENT_SET_NO": 999, "REV_AT_EPOCH": 97657, "BSTAR": 0.0033844, "MEAN_MOTION_DOT": 0.00038671, "MEAN_MOTION_DDOT": 0}, "tle": {"line1": "1 31288U 99025BNW 25353.43423631  .00038671  00000+0  33844-2 0  9999", "line2": "2 31288  98.7467 152.2600 0022905 277.3502 146.1105 14.96394109976573"}}, "geometry": {"type": "Point", "coordinates": [155.80077384615922, -17.227042461748407]}}, {"type": "Feature", "properties": {"norad_id": 31293, "name": "FENGYUN 1C DEB", "group": "fengyun-1c-debris", "lat": -35.01001571308895, "lon": 7.644155976747656, "alt_km": 812.5814605084761, "timestamp": "2025-12-20T03:42:47.674807+00:00", "meta": {"OBJECT_NAME": "FENGYUN 1C DEB", "OBJECT_ID": "1999-025BPB", "EPOCH": "2025-12-18T06:33:54.864288", "MEAN_MOTION": 14.3081483, "ECCENTRICITY": 0.01256227, "INCLINATION": 98.4226, "RA_OF_ASC_NODE": 359.8639, "ARG_OF_PERICENTER": 228.3966, "MEAN_ANOMALY": 130.64, "EPHEMERIS_TYPE": 0, "CLASSIFICATION_TYPE": "U", "NORAD_CAT_ID": 31293, "ELEMENT_SET_NO": 999, "REV_AT_EPOCH": 65323, "BSTAR": 6.7010406e-05, "MEAN_MOTION_DOT": 1.47e-06, "MEAN_MOTION_DDOT": 0}, "tle": {"line1": "1 31293U 99025BPB 25352.27355167  .00000147  00000+0  67010-4 0  9995", "line2": "2 31293  98.4226 359.8639 0125622 228.3966 130.6400 14.30814830653233"}}, "geometry": {"type": "Point", "coordinates": [7.644155976747656, -35.01001571308895]}}, {"type": "Feature", "properties": {"norad_id": 31294, "name": "FENGYUN 1C DEB", "group": "fengyun-1c-debris", "lat": -25.836751267370357, "lon": -6.3699106334519175, "alt_km": 777.2055413884564, "timestamp": "2025-12-20T03:42:47.674818+00:00", "meta": {"OBJECT_NAME": "FENGYUN 1C DEB", "OBJECT_ID": "1999-025BPC", "EPOCH": "2025-12-18T22:59:27.872736", "MEAN_MOTION": 14.15324991, "ECCENTRICITY": 0.0099357, "INCLINATION": 98.5431, "RA_OF_ASC_NODE": 348.3095, "ARG_OF_PERICENTER": 323.193, "MEAN_ANOMALY": 36.2451, "EPHEMERIS_TYPE": 0, "CLASSIFICATION_TYPE": "U", "NORAD_CAT_ID": 31294, "ELEMENT_SET_NO": 999, "REV_AT_EPOCH": 96941, "BSTAR": 0.0004101183, "MEAN_MOTION_DOT": 7.95e-06, "MEAN_MOTION_DDOT": 0}, "tle": {"line1": "1 31294U 99025BPC 25352.95796149  .00000795  00000+0  41012-3 0  9992", "line2": "2 31294  98.5431 348.3095 0099357 323.1930  36.2451 14.15324991969416"}}, "geometry": {"type": "Point", "coordinates": [-6.3699106334519175, -25.836751267370357]}}, {"type": "Feature", "properties": {"norad_id": 31295, "name": "FENGYUN 1C DEB", "group": "fengyun-1c-debris", "lat": 33.034995154981786, "lon": 3.844120863966655, "alt_km": 896.1745807678708, "timestamp": "2025-12-20T03:42:47.674829+00:00", "meta": {"OBJECT_NAME": "FENGYUN 1C DEB", "OBJECT_ID": "1999-025BPD", "EPOCH": "2025-12-19T04:39:29.070144", "MEAN_MOTION": 13.96833947, "ECCENTRICITY": 0.0077052, "INCLINATION": 98.3165, "RA_OF_ASC_NODE": 177.5171, "ARG_OF_PERICENTER": 232.9304, "MEAN_ANOMALY": 126.4799, "EPHEMERIS_TYPE": 0, "CLASSIFICATION_TYPE": "U", "NORAD_CAT_ID": 31295, "ELEMENT_SET_NO": 999, "REV_AT_EPOCH": 95593, "BSTAR": -5.6514e-05, "MEAN_MOTION_DOT": -1.19e-06, "MEAN_MOTION_DDOT": 0}, "tle": {"line1": "1 31295U 99025BPD 25353.19408646 -.00000119  00000+0 -56514-4 0  9998", "line2": "2 31295  98.3165 177.5171 0077052 232.9304 126.4799 13.96833947955939"}}, "geometry": {"type": "Point", "coordinates": [3.844120863966655, 33.034995154981786]}}, {"type": "Feature", "properties": {"norad_id": 31296, "name": "FENGYUN 1C DEB", "group": "fengyun-1c-debris", "lat": 33.89637631491733, "lon": 96.0521540279954, "alt_km": 643.1907116214861, "timestamp": "2025-12-20T03:42:47.674839+00:00", "meta": {"OBJECT_NAME": "FENGYUN 1C DEB", "OBJECT_ID": "1999-025BPE", "EPOCH": "2025-12-19T00:56:49.751808", "MEAN_MOTION": 14.71756623, "ECCENTRICITY": 0.00196256, "INCLINATION": 99.0669, "RA_OF_ASC_NODE": 268.6514, "ARG_OF_PERICENTER": 192.7974, "MEAN_ANOMALY": 167.2734, "EPHEMERIS_TYPE": 0, "CLASSIFICATION_TYPE": "U", "NORAD_CAT_ID": 31296, "ELEMENT_SET_NO": 999, "REV_AT_EPOCH": 97442, "BSTAR": 0.0030357719, "MEAN_MOTION_DOT": 0.00018995, "MEAN_MOTION_DDOT": 0}, "tle": {"line1": "1 31296U 99025BPE 25353.03946472  .00018995  00000+0  30358-2 0  9991", "line2": "2 31296  99.0669 268.6514 0019625 192.7974 167.2734 14.71756623974424"}}, "geometry": {"type": "Point", "coordinates": [96.0521540279954, 33.89637631491733]}}, {"type": "Feature", "properties": {"norad_id": 31297, "name": "FENGYUN 1C DEB", "group": "fengyun-1c-debris", "lat": -53.71648206809722, "lon": -60.79106070021002, "alt_km": 777.7257365078167, "timestamp": "2025-12-20T03:42:47.674849+00:00", "meta": {"OBJECT_NAME": "FENGYUN 1C DEB", "OBJECT_ID": "1999-025BPF", "EPOCH": "2025-12-19T15:11:01.500000", "MEAN_MOTION": 14.57103686, "ECCENTRICITY": 0.0139657, "INCLINATION": 98.9344, "RA_OF_ASC_NODE": 131.0229, "ARG_OF_PERICENTER": 102.0169, "MEAN_ANOMALY": 274.5101, "EPHEMERIS_TYPE": 0, "CLASSIFICATION_TYPE": "U", "NORAD_CAT_ID": 31297, "ELEMENT_SET_NO": 999, "REV_AT_EPOCH": 99416, "BSTAR": 0.00023921, "MEAN_MOTION_DOT": 1.172e-05, "MEAN_MOTION_DDOT": 0}, "tle": {"line1": "1 31297U 99025BPF 25353.63265625  .00001172  00000+0  23921-3 0  9990", "line2": "2 31297  98.9344 131.0229 0139657 102.0169 274.5101 14.57103686994169"}}, "geometry": {"type": "Point", "coordinates": [-60.79106070021002, -53.71648206809722]}}, {"type": "Feature", "properties": {"norad_id": 31300, "name": "FENGYUN 1C DEB", "group": "fengyun-1c-debris", "lat": 41.06545233096228, "lon": -97.55567839494113, "alt_km": 844.8574035679067, "timestamp": "2025-12-20T03:42:47.674860+00:00", "meta": {"OBJECT_NAME": "FENGYUN 1C DEB", "OBJECT_ID": "1999-025BPJ", "EPOCH": "2025-12-19T05:21:05.605056", "MEAN_MOTION": 14.1515379, "ECCENTRICITY": 0.0059873, "INCLINATION": 99.5425, "RA_OF_ASC_NODE": 73.0207, "ARG_OF_PERICENTER": 41.8534, "MEAN_ANOMALY": 31.4219, "EPHEMERIS_TYPE": 0, "CLASSIFICATION_TYPE": "U", "NORAD_CAT_ID": 31300, "ELEMENT_SET_NO": 999, "REV_AT_EPOCH": 96266, "BSTAR": 0.00083728, "MEAN_MOTION_DOT": 1.604e-05, "MEAN_MOTION_DDOT": 0}, "tle": {"line1": "1 31300U 99025BPJ 25353.22298154  .00001604  00000+0  83728-3 0  9994", "line2": "2 31300  99.5425  73.0207 0059873  41.8534  31.4219 14.15153790962664"}}, "geometry": {"type": "Point", "coordinates": [-97.55567839494113, 41.06545233096228]}}, {"type": "Feature", "properties": {"norad_id": 31302, "name": "FENGYUN 1C DEB", "group": "fengyun-1c-debris", "lat": -51.95381436025839, "lon": 48.99831981258664, "alt_km": 805.5276783173049, "timestamp": "2025-12-20T03:42:47.674870+00:00", "meta": {"OBJECT_NAME": "FENGYUN 1C DEB", "OBJECT_ID": "1999-025BPL", "EPOCH": "2025-12-19T15:12:58.171104", "MEAN_MOTION": 14.27574345, "ECCENTRICITY": 0.002659, "INCLINATION": 99.4129, "RA_OF_ASC_NODE": 36.2, "ARG_OF_PERICENTER": 35.1141, "MEAN_ANOMALY": 117.7071, "EPHEMERIS_TYPE": 0, "CLASSIFICATION_TYPE": "U", "NORAD_CAT_ID": 31302, "ELEMENT_SET_NO": 999, "REV_AT_EPOCH": 96456, "BSTAR": 0.00096178, "MEAN_MOTION_DOT": 2.325e-05, "MEAN_MOTION_DDOT": 0}, "tle": {"line1": "1 31302U 99025BPL 25353.63400661  .00002325  00000+0  96178-3 0  9993", "line2": "2 31302  99.4129  36.2000 0026590  35.1141 117.7071 14.27574345964569"}}, "geometry": {"type": "Point", "coordinates": [48.99831981258664, -51.95381436025839]}}]}